0 ONEWEB-0650
1 55813U 23029T   23282.55351836  .00000092  00000-0  19672-3 0  9990
2 55813  87.9214 140.3435 0001887  65.5665 294.5664 13.19727310 29429
0 ONEWEB-0652
1 55814U 23029U   23282.55374889  .00000234  00000-0  59583-3 0  9997
2 55814  87.8968 125.1123 0001903  88.0181 272.1167 13.14497604 30407
0 ONEWEB-0653
1 55815U 23029V   23282.54106355  .00000054  00000-0  11205-3 0  9997
2 55815  87.9048 125.0433 0002040  90.4354 269.7009 13.14498690 30439
0 ONEWEB-0654
1 55816U 23029W   23282.53472271 -.00000026  00000-0 -10481-3 0  9996
2 55816  87.8968 125.1075 0001739 105.5835 254.5487 13.14500413 30450
0 ONEWEB-0656
1 55817U 23029X   23282.91667824  .00000016  00000-0  00000+0 0  9998
2 55817  87.4760 110.2836 0002830  56.5538 174.6107 13.69694520 32237
0 ONEWEB-0657
1 55818U 23029Y   23282.54878104  .00000000  00000-0 -31045-4 0  9995
2 55818  87.9218 140.3491 0000671  72.4796 287.6410 13.19724954 29436
0 ONEWEB-0658
1 55819U 23029Z   23282.69568868 -.00000027  00000-0 -99090-4 0  9999
2 55819  87.9201 140.2657 0002095  61.5771 298.5573 13.19725252 30149
0 ONEWEB-0660
1 55820U 23029AA  23282.58543399 -.00000080  00000-0 -24988-3 0  9993
2 55820  87.8977 125.0662 0002339  77.2377 282.9014 13.14506908 30444
